[
    {
        "Altitude(m)": 607910.988308271,
        "Argument of Periapsis(deg)": 0.0,
        "Eccentricity": 0.0,
        "Inclination(deg)": 60.0,
        "Latitude(deg)": -14.292827348934729,
        "Longitude(deg)": 88.44265583483002,
        "Mean Anomaly(deg)": 196.36359999999996,
        "RAAN(deg)": 0.0,
        "Satellite Name": "Test1 12",
        "Satellite Number": 12,
        "Semi-Major Axis(m)": 6980739.136638005,
        "Time(s)": 0
    },
    {
        "Altitude(m)": 608060.2211668311,
        "Argument of Periapsis(deg)": 0.00010418945913296404,
        "Eccentricity": 0.0,
        "Inclination(deg)": 60.0,
        "Latitude(deg)": -14.826488592531256,
        "Longitude(deg)": 88.73126544524331,
        "Mean Anomaly(deg)": 196.9837061454618,
        "RAAN(deg)": -0.0004200491397426661,
        "Satellite Name": "Test1 12",
        "Satellite Number": 12,
        "Semi-Major Axis(m)": 6980739.136638005,
        "Time(s)": 10
    }
]